{
  "name": "SATGUS",
  "line1": "1 62713U 25009DJ  25311.19113070  .00008669  00000+0  74994-3 0  9993",
  "line2": "2 62713  97.7267  29.7059 0002992 132.8319 227.3155 14.97404863 44290",
  "fetched_at": "2025-11-08T00:17:26.837637+00:00"
}